[{"OBJECT_NAME":"COSMOS 2251 DEB","OBJECT_ID":"1993-036ART","EPOCH":"2026-03-14T22:52:47.930592","MEAN_MOTION":14.62712355,"ECCENTRICITY":0.00481413,"INCLINATION":74.0076,"RA_OF_ASC_NODE":163.872,"ARG_OF_PERICENTER":298.7918,"MEAN_ANOMALY":60.8418,"EPHEMERIS_TYPE":0,"CLASSIFICATION_TYPE":"U","NORAD_CAT_ID":35773,"ELEMENT_SET_NO":999,"REV_AT_EPOCH":88187,"BSTAR":0.00059316603,"MEAN_MOTION_DOT":3.041e-5,"MEAN_MOTION_DDOT":0},{"OBJECT_NAME":"COSMOS 2251 DEB","OBJECT_ID":"1993-036ARX","EPOCH":"2026-03-11T07:28:00.036192","MEAN_MOTION":13.41396521,"ECCENTRICITY":0.0449587,"INCLINATION":73.7707,"RA_OF_ASC_NODE":181.2283,"ARG_OF_PERICENTER":62.684,"MEAN_ANOMALY":331.43,"EPHEMERIS_TYPE":0,"CLASSIFICATION_TYPE":"U","NORAD_CAT_ID":35777,"ELEMENT_SET_NO":999,"REV_AT_EPOCH":80872,"BSTAR":0.00030715,"MEAN_MOTION_DOT":2.91e-6,"MEAN_MOTION_DDOT":0},{"OBJECT_NAME":"COSMOS 2251 DEB","OBJECT_ID":"1993-036ASE","EPOCH":"2026-03-14T19:56:59.755488","MEAN_MOTION":14.50275732,"ECCENTRICITY":0.00405886,"INCLINATION":74.0357,"RA_OF_ASC_NODE":276.7461,"ARG_OF_PERICENTER":22.0455,"MEAN_ANOMALY":338.244,"EPHEMERIS_TYPE":0,"CLASSIFICATION_TYPE":"U","NORAD_CAT_ID":35784,"ELEMENT_SET_NO":999,"REV_AT_EPOCH":67041,"BSTAR":0.00024038051,"MEAN_MOTION_DOT":9.18e-6,"MEAN_MOTION_DDOT":0},{"OBJECT_NAME":"COSMOS 2251 DEB","OBJECT_ID":"1993-036ASG","EPOCH":"2026-03-15T02:18:36.165024","MEAN_MOTION":14.67432815,"ECCENTRICITY":0.00354199,"INCLINATION":74.0113,"RA_OF_ASC_NODE":225.3488,"ARG_OF_PERICENTER":328.615,"MEAN_ANOMALY":31.2905,"EPHEMERIS_TYPE":0,"CLASSIFICATION_TYPE":"U","NORAD_CAT_ID":35786,"ELEMENT_SET_NO":999,"REV_AT_EPOCH":74762,"BSTAR":0.0011985674,"MEAN_MOTION_DOT":6.821e-5,"MEAN_MOTION_DDOT":0},{"OBJECT_NAME":"COSMOS 2251 DEB","OBJECT_ID":"1993-036ASK","EPOCH":"2026-03-14T20:05:40.396704","MEAN_MOTION":14.36063717,"ECCENTRICITY":0.0048273,"INCLINATION":74.0365,"RA_OF_ASC_NODE":115.3154,"ARG_OF_PERICENTER":195.3926,"MEAN_ANOMALY":164.5762,"EPHEMERIS_TYPE":0,"CLASSIFICATION_TYPE":"U","NORAD_CAT_ID":35789,"ELEMENT_SET_NO":999,"REV_AT_EPOCH":62549,"BSTAR":0.00010272256,"MEAN_MOTION_DOT":2.77e-6,"MEAN_MOTION_DDOT":0},{"OBJECT_NAME":"COSMOS 2251 DEB","OBJECT_ID":"1993-036ASP","EPOCH":"2026-03-11T19:55:05.253888","MEAN_MOTION":14.81456311,"ECCENTRICITY":0.00051659,"INCLINATION":74.0399,"RA_OF_ASC_NODE":244.7209,"ARG_OF_PERICENTER":297.1526,"MEAN_ANOMALY":127.5449,"EPHEMERIS_TYPE":0,"CLASSIFICATION_TYPE":"U","NORAD_CAT_ID":35793,"ELEMENT_SET_NO":999,"REV_AT_EPOCH":67115,"BSTAR":0.0018817756,"MEAN_MOTION_DOT":0.00014742,"MEAN_MOTION_DDOT":0},{"OBJECT_NAME":"COSMOS 2251 DEB","OBJECT_ID":"1993-036ASW","EPOCH":"2026-03-10T18:14:41.917632","MEAN_MOTION":13.88828263,"ECCENTRICITY":0.02510585,"INCLINATION":73.8421,"RA_OF_ASC_NODE":257.4394,"ARG_OF_PERICENTER":327.5625,"MEAN_ANOMALY":31.0275,"EPHEMERIS_TYPE":0,"CLASSIFICATION_TYPE":"U","NORAD_CAT_ID":35824,"ELEMENT_SET_NO":999,"REV_AT_EPOCH":85449,"BSTAR":0.0010767918,"MEAN_MOTION_DOT":1.648e-5,"MEAN_MOTION_DDOT":0},{"OBJECT_NAME":"COSMOS 2251 DEB","OBJECT_ID":"1993-036ASX","EPOCH":"2026-03-12T11:04:55.855776","MEAN_MOTION":13.71364737,"ECCENTRICITY":0.0350669,"INCLINATION":74.1159,"RA_OF_ASC_NODE":355.0861,"ARG_OF_PERICENTER":69.7111,"MEAN_ANOMALY":294.133,"EPHEMERIS_TYPE":0,"CLASSIFICATION_TYPE":"U","NORAD_CAT_ID":35825,"ELEMENT_SET_NO":999,"REV_AT_EPOCH":83738,"BSTAR":0.001921,"MEAN_MOTION_DOT":2.654e-5,"MEAN_MOTION_DDOT":0},{"OBJECT_NAME":"COSMOS 2251 DEB","OBJECT_ID":"1993-036ATB","EPOCH":"2026-03-14T06:41:52.227744","MEAN_MOTION":14.79059121,"ECCENTRICITY":0.00062175,"INCLINATION":74.0228,"RA_OF_ASC_NODE":279.0263,"ARG_OF_PERICENTER":308.3451,"MEAN_ANOMALY":51.7165,"EPHEMERIS_TYPE":0,"CLASSIFICATION_TYPE":"U","NORAD_CAT_ID":35829,"ELEMENT_SET_NO":999,"REV_AT_EPOCH":89127,"BSTAR":0.0018137317,"MEAN_MOTION_DOT":0.00013418,"MEAN_MOTION_DDOT":0},{"OBJECT_NAME":"COSMOS 2251 DEB","OBJECT_ID":"1993-036ATC","EPOCH":"2026-03-14T08:06:46.507392","MEAN_MOTION":14.24884016,"ECCENTRICITY":0.01169207,"INCLINATION":73.8596,"RA_OF_ASC_NODE":99.6191,"ARG_OF_PERICENTER":48.7837,"MEAN_ANOMALY":312.3315,"EPHEMERIS_TYPE":0,"CLASSIFICATION_TYPE":"U","NORAD_CAT_ID":35830,"ELEMENT_SET_NO":999,"REV_AT_EPOCH":62568,"BSTAR":0.0015677233,"MEAN_MOTION_DOT":3.908e-5,"MEAN_MOTION_DDOT":0},{"OBJECT_NAME":"COSMOS 2251 DEB","OBJECT_ID":"1993-036ATG","EPOCH":"2026-03-14T11:24:34.333632","MEAN_MOTION":14.13066372,"ECCENTRICITY":0.01122784,"INCLINATION":73.9321,"RA_OF_ASC_NODE":141.29,"ARG_OF_PERICENTER":282.02,"MEAN_ANOMALY":93.3458,"EPHEMERIS_TYPE":0,"CLASSIFICATION_TYPE":"U","NORAD_CAT_ID":35834,"ELEMENT_SET_NO":999,"REV_AT_EPOCH":67559,"BSTAR":6.2612071e-5,"MEAN_MOTION_DOT":9.8e-7,"MEAN_MOTION_DDOT":0},{"OBJECT_NAME":"COSMOS 2251 DEB","OBJECT_ID":"1993-036ATH","EPOCH":"2026-03-13T08:40:15.747168","MEAN_MOTION":13.83247246,"ECCENTRICITY":0.02957425,"INCLINATION":74.0608,"RA_OF_ASC_NODE":116.0243,"ARG_OF_PERICENTER":237.3515,"MEAN_ANOMALY":119.8762,"EPHEMERIS_TYPE":0,"CLASSIFICATION_TYPE":"U","NORAD_CAT_ID":35835,"ELEMENT_SET_NO":999,"REV_AT_EPOCH":62952,"BSTAR":0.0012584444,"MEAN_MOTION_DOT":1.909e-5,"MEAN_MOTION_DDOT":0},{"OBJECT_NAME":"COSMOS 2251 DEB","OBJECT_ID":"1993-036ATJ","EPOCH":"2026-03-13T11:17:18.079296","MEAN_MOTION":14.73601554,"ECCENTRICITY":0.00194846,"INCLINATION":74.0338,"RA_OF_ASC_NODE":356.3351,"ARG_OF_PERICENTER":31.7473,"MEAN_ANOMALY":328.487,"EPHEMERIS_TYPE":0,"CLASSIFICATION_TYPE":"U","NORAD_CAT_ID":35836,"ELEMENT_SET_NO":999,"REV_AT_EPOCH":64855,"BSTAR":0.0021072421,"MEAN_MOTION_DOT":0.00013762,"MEAN_MOTION_DDOT":0},{"OBJECT_NAME":"COSMOS 2251 DEB","OBJECT_ID":"1993-036ATK","EPOCH":"2026-03-10T15:57:51.254784","MEAN_MOTION":13.64468575,"ECCENTRICITY":0.0418823,"INCLINATION":73.7319,"RA_OF_ASC_NODE":61.2489,"ARG_OF_PERICENTER":327.4337,"MEAN_ANOMALY":151.5291,"EPHEMERIS_TYPE":0,"CLASSIFICATION_TYPE":"U","NORAD_CAT_ID":35837,"ELEMENT_SET_NO":999,"REV_AT_EPOCH":59175,"BSTAR":0.006223456,"MEAN_MOTION_DOT":9.063e-5,"MEAN_MOTION_DDOT":0},{"OBJECT_NAME":"COSMOS 2251 DEB","OBJECT_ID":"1993-036ATN","EPOCH":"2026-03-14T11:28:50.405088","MEAN_MOTION":14.3898794,"ECCENTRICITY":0.01162259,"INCLINATION":73.9334,"RA_OF_ASC_NODE":347.9779,"ARG_OF_PERICENTER":230.1573,"MEAN_ANOMALY":128.9312,"EPHEMERIS_TYPE":0,"CLASSIFICATION_TYPE":"U","NORAD_CAT_ID":35840,"ELEMENT_SET_NO":999,"REV_AT_EPOCH":86610,"BSTAR":0.0016997502,"MEAN_MOTION_DOT":5.651e-5,"MEAN_MOTION_DDOT":0},{"OBJECT_NAME":"COSMOS 2251 DEB","OBJECT_ID":"1993-036ATW","EPOCH":"2026-02-14T01:25:55.152768","MEAN_MOTION":14.50773681,"ECCENTRICITY":0.00819848,"INCLINATION":74.0248,"RA_OF_ASC_NODE":310.8888,"ARG_OF_PERICENTER":63.4989,"MEAN_ANOMALY":357.8793,"EPHEMERIS_TYPE":0,"CLASSIFICATION_TYPE":"U","NORAD_CAT_ID":35883,"ELEMENT_SET_NO":999,"REV_AT_EPOCH":63304,"BSTAR":0.00028013865,"MEAN_MOTION_DOT":1.122e-5,"MEAN_MOTION_DDOT":0},{"OBJECT_NAME":"COSMOS 2251 DEB","OBJECT_ID":"1993-036ATX","EPOCH":"2026-02-14T20:23:06.722304","MEAN_MOTION":14.26226388,"ECCENTRICITY":0.01118844,"INCLINATION":73.9877,"RA_OF_ASC_NODE":219.8695,"ARG_OF_PERICENTER":351.2575,"MEAN_ANOMALY":8.6619,"EPHEMERIS_TYPE":0,"CLASSIFICATION_TYPE":"U","NORAD_CAT_ID":35884,"ELEMENT_SET_NO":999,"REV_AT_EPOCH":23271,"BSTAR":0.00091069659,"MEAN_MOTION_DOT":2.306e-5,"MEAN_MOTION_DDOT":0},{"OBJECT_NAME":"COSMOS 2251 DEB","OBJECT_ID":"1993-036ATY","EPOCH":"2026-03-14T09:55:27.496416","MEAN_MOTION":14.37708877,"ECCENTRICITY":0.0024033,"INCLINATION":74.027,"RA_OF_ASC_NODE":125.9832,"ARG_OF_PERICENTER":192.1487,"MEAN_ANOMALY":167.909,"EPHEMERIS_TYPE":0,"CLASSIFICATION_TYPE":"U","NORAD_CAT_ID":35885,"ELEMENT_SET_NO":999,"REV_AT_EPOCH":66333,"BSTAR":0.00024205584,"MEAN_MOTION_DOT":7.04e-6,"MEAN_MOTION_DDOT":0},{"OBJECT_NAME":"COSMOS 2251 DEB","OBJECT_ID":"1993-036AUB","EPOCH":"2026-03-14T00:00:13.244256","MEAN_MOTION":14.58732559,"ECCENTRICITY":0.00509458,"INCLINATION":74.0354,"RA_OF_ASC_NODE":182.895,"ARG_OF_PERICENTER":291.0246,"MEAN_ANOMALY":68.5473,"EPHEMERIS_TYPE":0,"CLASSIFICATION_TYPE":"U","NORAD_CAT_ID":35888,"ELEMENT_SET_NO":999,"REV_AT_EPOCH":87604,"BSTAR":0.00042944797,"MEAN_MOTION_DOT":2.01e-5,"MEAN_MOTION_DDOT":0},{"OBJECT_NAME":"COSMOS 2251 DEB","OBJECT_ID":"1993-036AUD","EPOCH":"2026-02-24T19:06:08.167104","MEAN_MOTION":14.58817255,"ECCENTRICITY":0.00556948,"INCLINATION":73.9365,"RA_OF_ASC_NODE":100.9469,"ARG_OF_PERICENTER":215.1733,"MEAN_ANOMALY":144.5751,"EPHEMERIS_TYPE":0,"CLASSIFICATION_TYPE":"U","NORAD_CAT_ID":35890,"ELEMENT_SET_NO":999,"REV_AT_EPOCH":66230,"BSTAR":0.0011440179,"MEAN_MOTION_DOT":5.439e-5,"MEAN_MOTION_DDOT":0},{"OBJECT_NAME":"COSMOS 2251 DEB","OBJECT_ID":"1993-036AUE","EPOCH":"2026-03-15T05:00:53.773344","MEAN_MOTION":15.43775204,"ECCENTRICITY":0.00348491,"INCLINATION":73.9827,"RA_OF_ASC_NODE":253.998,"ARG_OF_PERICENTER":358.171,"MEAN_ANOMALY":1.9366,"EPHEMERIS_TYPE":0,"CLASSIFICATION_TYPE":"U","NORAD_CAT_ID":35891,"ELEMENT_SET_NO":999,"REV_AT_EPOCH":68642,"BSTAR":0.0014440709,"MEAN_MOTION_DOT":0.00067365,"MEAN_MOTION_DDOT":0},{"OBJECT_NAME":"COSMOS 2251 DEB","OBJECT_ID":"1993-036AUM","EPOCH":"2026-03-08T12:34:22.155456","MEAN_MOTION":14.96324912,"ECCENTRICITY":0.00809203,"INCLINATION":73.9894,"RA_OF_ASC_NODE":123.8265,"ARG_OF_PERICENTER":247.0296,"MEAN_ANOMALY":179.8153,"EPHEMERIS_TYPE":0,"CLASSIFICATION_TYPE":"U","NORAD_CAT_ID":35898,"ELEMENT_SET_NO":999,"REV_AT_EPOCH":68092,"BSTAR":0.00097608609,"MEAN_MOTION_DOT":0.00011776,"MEAN_MOTION_DDOT":0},{"OBJECT_NAME":"COSMOS 2251 DEB","OBJECT_ID":"1993-036AUQ","EPOCH":"2026-03-14T14:03:19.264032","MEAN_MOTION":15.23336683,"ECCENTRICITY":0.00062781,"INCLINATION":74.0051,"RA_OF_ASC_NODE":191.697,"ARG_OF_PERICENTER":332.9515,"MEAN_ANOMALY":40.5552,"EPHEMERIS_TYPE":0,"CLASSIFICATION_TYPE":"U","NORAD_CAT_ID":35901,"ELEMENT_SET_NO":999,"REV_AT_EPOCH":87517,"BSTAR":0.0065521484,"MEAN_MOTION_DOT":0.00159138,"MEAN_MOTION_DDOT":0}]
